IRIDIUM 7               
1 24793U 97020B   25149.50176281  .00000357  00000+0  11639-3 0  9991
2 24793  86.3992 184.7343 0002362  98.8538 261.2927 14.35926981469217
IRIDIUM 5               
1 24795U 97020D   25149.89351061  .00003706  00000+0  30535-3 0  9993
2 24795  86.3883  92.1675 0107866 202.7455 156.8978 14.94221512482760
IRIDIUM 4               
1 24796U 97020E   25149.49693991  .00000359  00000+0  11478-3 0  9997
2 24796  86.3986 181.6293 0002215  93.6467 266.4983 14.36830628469788
IRIDIUM 914             
1 24836U 97030A   25149.62164375  .00000403  00000+0  11969-3 0  9992
2 24836  86.3970 190.2283 0000796  72.9137 287.2150 14.40857547604453
IRIDIUM 16              
1 24841U 97030F   25149.13646613  .00000363  00000+0  11200-3 0  9997
2 24841  86.4068 213.2713 0004380 110.7576 249.4092 14.38701333464269
IRIDIUM 911             
1 24842U 97030G   25149.45342370  .00000499  00000+0  12975-3 0  9996
2 24842  86.4491 211.9280 0015309 152.0858 208.1170 14.47621202472375
IRIDIUM 17              
1 24870U 97034B   25149.80792364  .00000430  00000+0  13639-3 0  9995
2 24870  86.3970 242.4763 0003877  87.1684 272.9957 14.37814073460945
IRIDIUM 920             
1 24871U 97034C   25149.62025883  .00000442  00000+0  12989-3 0  9991
2 24871  86.4003 221.8292 0013230 135.5905 224.6358 14.41519654463900
